BEIJING 1               
1 28890U 05043A   22345.24737462  .00000399  00000+0  89819-4 0  9999
2 28890  98.1387 104.6249 0014632 345.4435  14.6351 14.61557266912965
HJ-1A                   
1 33320U 08041A   22345.53414324  .00000574  00000+0  86008-4 0  9997
2 33320  97.6613  10.1479 0021664  19.5602 340.6446 14.78011870768543
HJ-1B                   
1 33321U 08041B   22345.48447257  .00001163  00000+0  16614-3 0  9993
2 33321  97.6768  14.0208 0035171  36.3453 324.0154 14.78074406768532
YAOGAN 4                
1 33446U 08061A   22345.40863700  .00000761  00000+0  11333-3 0  9996
2 33446  97.8351 280.3054 0014768 283.0099  76.9463 14.77613334755724
DEIMOS-1                
1 35681U 09041A   22345.52806531  .00000467  00000+0  81387-4 0  9990
2 35681  97.6929 187.3478 0002484  47.2697 312.8746 14.72195443717824
UK-DMC 2                
1 35683U 09041C   22345.49133838  .00000689  00000+0  11807-3 0  9996
2 35683  97.7087 149.1598 0001805  78.8101 281.3341 14.71625946717542
RISAT 1                 
1 38248U 12017A   22345.50361489  .00005189  00000+0  29593-3 0  9991
2 38248  97.5490 355.0253 0004654  31.0809 329.0697 15.13200077585600
DMC3-FM1                
1 40715U 15032A   22345.47374115  .00000652  00000+0  88031-4 0  9992
2 40715  97.8226 228.5785 0004946 314.6829  45.3974 14.82308032399516
DMC3-FM2                
1 40716U 15032B   22345.49711644  .00000662  00000+0  89292-4 0  9998
2 40716  97.8274 229.3346 0007026 314.9164  45.1460 14.82301320399521
DMC3-FM3                
1 40717U 15032C   22345.51752332  .00000656  00000+0  88653-4 0  9994
2 40717  97.8310 230.3460 0008382 309.9502  50.0973 14.82297691399527
